SHIJIAN-6 05B (SJ-6 05B)
1 49962U 21122B   26068.69026669  .00003434  00000+0  20679-3 0  9994
2 49962  97.3727  52.7566 0002764  59.7124 300.4380 15.11445981234719
STARLINK-4718           
1 53773U 22111A   26068.86693806 -.00000062  00000+0  14208-4 0  9997
2 53773  53.2158 283.2512 0001406  93.4460 266.6693 15.08838875193870
