[{"OBJECT_NAME":"SHIJIAN-6 05B (SJ-6 05B)","OBJECT_ID":"2021-122B","EPOCH":"2026-03-09T16:33:59.042016","MEAN_MOTION":15.11445981,"ECCENTRICITY":0.0002764,"INCLINATION":97.3727,"RA_OF_ASC_NODE":52.7566,"ARG_OF_PERICENTER":59.7124,"MEAN_ANOMALY":300.438,"EPHEMERIS_TYPE":0,"CLASSIFICATION_TYPE":"U","NORAD_CAT_ID":49962,"ELEMENT_SET_NO":999,"REV_AT_EPOCH":23471,"BSTAR":0.00020679,"MEAN_MOTION_DOT":3.434e-5,"MEAN_MOTION_DDOT":0},{"OBJECT_NAME":"STARLINK-4718","OBJECT_ID":"2022-111A","EPOCH":"2026-03-09T20:48:23.448384","MEAN_MOTION":15.08838875,"ECCENTRICITY":0.00014059,"INCLINATION":53.2158,"RA_OF_ASC_NODE":283.2512,"ARG_OF_PERICENTER":93.446,"MEAN_ANOMALY":266.6693,"EPHEMERIS_TYPE":0,"CLASSIFICATION_TYPE":"U","NORAD_CAT_ID":53773,"ELEMENT_SET_NO":999,"REV_AT_EPOCH":19387,"BSTAR":1.4207763e-5,"MEAN_MOTION_DOT":-6.2e-7,"MEAN_MOTION_DDOT":0}]
